{
  "norad_id": 68382,
  "name": "STARLINK-36946",
  "history": [
    {
      "epoch": "2026-04-02T18:00:01.999296Z",
      "apogee_km": 280.2627220791528,
      "perigee_km": 278.29079612370606,
      "latitude_deg": 32.831796815670266,
      "longitude_deg": -42.858973043292906,
      "height_km": 283.4318548389394,
      "semi_major_axis_km": 6657.413759101429,
      "eccentricity": 0.0001481,
      "inclination_deg": 97.2827,
      "raan_deg": 233.5405,
      "arg_perigee_deg": 74.3083,
      "mean_anomaly_deg": 72.6109,
      "mean_motion_rev_day": 15.98248988
    }
  ]
}